{"type": "FeatureCollection", "name": "台州市域铁路S1线", "properties": {"coordSystem": "GCJ-02", "source": "台州S1线shp", "note": "已从 WGS84 转为 GCJ-02，可直接叠高德地图"}, "features": [{"type": "Feature", "properties": {"name": "台州市域铁路S1线", "lineCode": "S1", "color": "#1E90FF", "osm_id": "530994472", "fclass": "subway", "bridge": "F", "tunnel": "T", "layer": -1, "fid": 1}, "geometry": {"type": "LineString", "coordinates": [[121.37327432251759, 28.652934622653213], [121.37264556462024, 28.649975838663863], [121.37226485235213, 28.648126001351397], [121.37218527819893, 28.64742670431642], [121.37239681849442, 28.646468442243776], [121.3728833770757, 28.645680730191366], [121.3733738532213, 28.645147058836343], [121.3760470366828, 28.642845565183173], [121.37833810698287, 28.640963461174724], [121.38023875313954, 28.639613274587912], [121.38075974693523, 28.639277832913113], [121.38124779807067, 28.639022492766752], [121.3819268586553, 28.638788746901078], [121.38244563179396, 28.6386685916656], [121.38349055143902, 28.638407948603195], [121.38427266219604, 28.638240279764293], [121.38630345450153, 28.6378927637352], [121.38783816693613, 28.637930425084598], [121.39166365724876, 28.638288624984643], [121.39590787682253, 28.638320367141564], [121.40282717606635, 28.637976576909566], [121.40300680680862, 28.63796389999526], [121.40333656013276, 28.63795414619361], [121.4038279295602, 28.637940006545374], [121.40502114543804, 28.637875392910978], [121.40547657181362, 28.63786351658426], [121.40676208976778, 28.63783013458718], [121.40806092412441, 28.637813588543203], [121.40857137081993, 28.637756922496873], [121.4091310923455, 28.637635304126363], [121.40980975129675, 28.63718037307636], [121.41023694414874, 28.636815311141028], [121.41061483906161, 28.636461055627574], [121.41100009856667, 28.635774510550334], [121.41118242466774, 28.63538976508359], [121.41123659576216, 28.635191946244323]]}}, {"type": "Feature", "properties": {"name": "台州市域铁路S1线", "lineCode": "S1", "color": "#1E90FF", "osm_id": "530994473", "fclass": "subway", "bridge": "T", "tunnel": "F", "layer": 1, "fid": 2}, "geometry": {"type": "LineString", "coordinates": [[121.41071718150084, 28.632228928737646], [121.40963009692496, 28.631067762975867], [121.40887093963761, 28.63023249442212], [121.40846445440548, 28.62983601435595], [121.40818776173478, 28.629592702057842], [121.4054578059072, 28.6269464857289], [121.40340983704031, 28.624896780951943], [121.39958379826852, 28.621176632265577], [121.3887108472738, 28.610413734857364], [121.3772077388965, 28.599086700564904], [121.37682661007707, 28.598777904747692], [121.37626813640365, 28.598464292866346], [121.37561602692344, 28.59820488581729], [121.375125538518, 28.598084131951243], [121.37477544387208, 28.59802357347499], [121.37439320220477, 28.598000690160454], [121.37416517697567, 28.597991802088305], [121.37289093557425, 28.59806472452962], [121.3686752632649, 28.598443438137398], [121.36674821425399, 28.59860466181998], [121.36514741259008, 28.598728560837998], [121.36076826525984, 28.599206121620544]]}}, {"type": "Feature", "properties": {"name": "台州市域铁路S1线", "lineCode": "S1", "color": "#1E90FF", "osm_id": "530996902", "fclass": "subway", "bridge": "T", "tunnel": "F", "layer": 2, "fid": 3}, "geometry": {"type": "LineString", "coordinates": [[121.36076826525984, 28.599206121620544], [121.35963167875262, 28.599411795311127], [121.35824700105307, 28.599748599298785], [121.35572421477016, 28.600660534510723], [121.35477297379484, 28.60099808179775], [121.35355317399242, 28.601275918441825], [121.35283654766349, 28.60140193488568], [121.35225407540226, 28.601429929461656], [121.35136526764353, 28.60138203967866], [121.34963701008532, 28.601245293735644], [121.34840554326486, 28.601116311656885], [121.34731755536517, 28.60098637171837], [121.34619498173453, 28.60090768041179], [121.34560482629607, 28.600854369489166], [121.34462473078132, 28.60075251002242], [121.3438900508185, 28.600653098562308], [121.34342023029944, 28.600499648278767], [121.34287514086053, 28.600289427273744], [121.34223603212372, 28.599910543532168], [121.34169032042374, 28.59951332276177], [121.34115721730744, 28.59890982056982], [121.34079178021106, 28.598355656943347], [121.34046941518129, 28.597537742511925], [121.34033155569864, 28.596777204444084]]}}, {"type": "Feature", "properties": {"name": "台州市域铁路S1线", "lineCode": "S1", "color": "#1E90FF", "osm_id": "790982397", "fclass": "subway", "bridge": "F", "tunnel": "T", "layer": -1, "fid": 4}, "geometry": {"type": "LineString", "coordinates": [[121.34003528271248, 28.595143435706053], [121.3399195680675, 28.59434432238638], [121.3393568052456, 28.591338681536016], [121.33897514541553, 28.58972897318065], [121.3387498234116, 28.589356665413284], [121.3376270375731, 28.58775675991634], [121.33713900559533, 28.58698646015032], [121.33628773509813, 28.585729234514535], [121.3332119026784, 28.581295747733805], [121.33289084554286, 28.58068614499018], [121.32899803470569, 28.569048477609233], [121.32825612175192, 28.56679383242032], [121.32650473816904, 28.56132773057088], [121.32630564000145, 28.56055170500757], [121.32622862790235, 28.56000101238092], [121.32620534493341, 28.559591785144853], [121.32624501818471, 28.558124205228935], [121.32634582368811, 28.55662853153651]]}}, {"type": "Feature", "properties": {"name": "台州市域铁路S1线", "lineCode": "S1", "color": "#1E90FF", "osm_id": "790982399", "fclass": "subway", "bridge": "T", "tunnel": "F", "layer": 1, "fid": 5}, "geometry": {"type": "LineString", "coordinates": [[121.32634582368811, 28.55662853153651], [121.32658855708206, 28.552758686054656], [121.32676203153595, 28.55137741108195], [121.3272245058382, 28.54952418220004], [121.32809395647404, 28.547390711307532], [121.32920829437215, 28.544540609203697], [121.32983711515561, 28.542376086373334], [121.33038619888853, 28.540708628116427], [121.3307378625774, 28.539247584278606], [121.33082321877085, 28.538829771912656]]}}, {"type": "Feature", "properties": {"name": "台州市域铁路S1线", "lineCode": "S1", "color": "#1E90FF", "osm_id": "790982400", "fclass": "subway", "bridge": "F", "tunnel": "T", "layer": -1, "fid": 6}, "geometry": {"type": "LineString", "coordinates": [[121.33082321877085, 28.538829771912656], [121.3308899240778, 28.538287572214468], [121.33089730759366, 28.537865409911632], [121.33085528695014, 28.537508080680528], [121.33080525359571, 28.537215063139737], [121.33077987727081, 28.53695460628831], [121.33074765125592, 28.536249451657827]]}}, {"type": "Feature", "properties": {"name": "台州市域铁路S1线", "lineCode": "S1", "color": "#1E90FF", "osm_id": "790982401", "fclass": "subway", "bridge": "T", "tunnel": "F", "layer": 1, "fid": 7}, "geometry": {"type": "LineString", "coordinates": [[121.33041029762762, 28.533571201213967], [121.33041869302261, 28.533273094583034], [121.3305292858186, 28.532608832589496], [121.33070281896849, 28.531960597789666], [121.33094219410125, 28.531266570466695], [121.3314110591696, 28.530349490750933], [121.33220312181957, 28.529216841519652], [121.33309179716899, 28.528079876759133]]}}, {"type": "Feature", "properties": {"name": "台州市域铁路S1线", "lineCode": "S1", "color": "#1E90FF", "osm_id": "790982405", "fclass": "subway", "bridge": "F", "tunnel": "T", "layer": -1, "fid": 8}, "geometry": {"type": "LineString", "coordinates": [[121.33352581186077, 28.527513976289224], [121.3345749226538, 28.526163233436698]]}}, {"type": "Feature", "properties": {"name": "台州市域铁路S1线", "lineCode": "S1", "color": "#1E90FF", "osm_id": "790982406", "fclass": "subway", "bridge": "T", "tunnel": "F", "layer": 3, "fid": 9}, "geometry": {"type": "LineString", "coordinates": [[121.33477714792315, 28.525895611515434], [121.33516245227757, 28.52531391267929], [121.3355331099485, 28.52455311461304], [121.33579062892048, 28.52393275758746], [121.33610975992586, 28.52301259909101], [121.33640761999955, 28.5217874804346], [121.33671259871957, 28.520605994294364], [121.33724450764383, 28.518553800058697], [121.33856358965798, 28.51329256485766], [121.33906002166245, 28.511321151008257], [121.33931527892773, 28.510033644549104], [121.33947837582035, 28.509274765542106], [121.33966269945033, 28.5082671335908], [121.33978317641184, 28.507166047370394], [121.33981855085922, 28.505846920858385], [121.33969784733232, 28.504042222204614], [121.33947777320495, 28.501546586474294], [121.3392931948538, 28.500575482058764], [121.33891007472637, 28.49950446693125], [121.33802313631345, 28.496963866690585], [121.33773855656067, 28.496243067472413], [121.33653307253857, 28.493189886577294], [121.33640176125401, 28.4928994337334], [121.33613042950421, 28.49244975814913], [121.33585910251418, 28.49206500560661], [121.3353701812149, 28.49149017158887], [121.33479486864236, 28.490915172791382], [121.33440578703562, 28.49061162432981], [121.33401660735629, 28.490340586998972], [121.33135571514678, 28.48885358996112], [121.33009135975695, 28.48804979889966], [121.32960084675327, 28.487664430272854], [121.32935348123593, 28.487413572013775], [121.32876082299919, 28.486763018317383], [121.32845731796613, 28.486303481989918], [121.32782814035706, 28.485132882411808], [121.32750873304768, 28.48379421655204], [121.32725798987991, 28.482618439319822], [121.3270627708198, 28.481464376942395], [121.32691716904996, 28.48041334542035], [121.32667220889554, 28.47884605398606], [121.32655950526136, 28.478124999096707], [121.32636577808773, 28.476815895861357], [121.32540948497758, 28.471727414181977], [121.32471959667576, 28.468148257397328], [121.32410472474527, 28.46520926456031], [121.32402209220854, 28.464536696868375], [121.3239888682114, 28.46387182516683], [121.32401681146855, 28.463642105564492], [121.32404844091437, 28.46312970438682], [121.32411363397524, 28.46249172748951], [121.32424436775396, 28.46182096431087], [121.32457230433016, 28.46078075869392], [121.32476338259704, 28.46026585941371], [121.32504665820906, 28.45968911558009], [121.32559969750312, 28.458747270088406], [121.32660499000063, 28.45726281822242], [121.32745356272157, 28.456049058509084], [121.3277903615458, 28.45549623064644], [121.3282777479819, 28.454367116256282], [121.32842663242583, 28.453802329640816], [121.32878656781602, 28.451758904016884], [121.32899284809997, 28.450794510578042], [121.32924795481541, 28.45007058238964], [121.3296349445114, 28.449240875231798], [121.33003817029751, 28.44841130034638], [121.33035261156617, 28.44772780005136], [121.33198388107199, 28.44214010381884], [121.33237697538395, 28.439897921030077], [121.3325023969114, 28.439182860001825], [121.33314787183856, 28.434665742470923], [121.3338288050129, 28.428608911165572], [121.33398688521011, 28.427725279084896], [121.33426872892025, 28.426721452518727], [121.3347792245524, 28.42504978913137], [121.3349262946481, 28.424353988841048], [121.33504661306885, 28.423752562569653], [121.3354602200892, 28.421124376652596], [121.33579979131933, 28.420143874297917], [121.33657165458355, 28.418421508777513], [121.3370935444753, 28.41641089913959], [121.33747748084787, 28.415048091449723], [121.33766654382273, 28.414385387425362], [121.33788989774229, 28.413929699507054], [121.33835595560045, 28.41312878743285], [121.33974530189624, 28.410729834421264], [121.34254859656333, 28.405856045219494], [121.34355502448331, 28.404123118658784], [121.34462426076801, 28.402201460486697], [121.34489650818256, 28.40178386850917], [121.34550916290219, 28.40118016114538], [121.34592461990098, 28.400883858017007], [121.34632244279193, 28.40065593634937], [121.34693190481639, 28.400376388074488], [121.34770089538485, 28.400094025096582], [121.34844773033824, 28.399798112083744], [121.34903874216894, 28.399603034508136], [121.34970059731812, 28.399442287147934], [121.35101126954316, 28.3992475799798], [121.35444693299647, 28.398785379185657]]}}, {"type": "Feature", "properties": {"name": "台州市域铁路S1线", "lineCode": "S1", "color": "#1E90FF", "osm_id": "790982407", "fclass": "subway", "bridge": "F", "tunnel": "T", "layer": -1, "fid": 10}, "geometry": {"type": "LineString", "coordinates": [[121.35593241896443, 28.398455340439057], [121.35631334526431, 28.398290147287113], [121.3567084925097, 28.398082265870325], [121.35705754662276, 28.397858701034224], [121.35753803638448, 28.397471316361006], [121.35810465961202, 28.39676689968627], [121.3597999885891, 28.393537265216423], [121.36051210398756, 28.392256935729232], [121.3608701123905, 28.391641176099345], [121.36127921264986, 28.391053301220264], [121.3618797403017, 28.3902871867794], [121.36561272020427, 28.386943694124394], [121.36702529616615, 28.385721212882775], [121.3706922144705, 28.38250468909695], [121.37647587335567, 28.37755841750318], [121.37748934236234, 28.37666261789711], [121.3796357055147, 28.3748131387015], [121.38113097932145, 28.373444342876198], [121.38201672277866, 28.372554465562246], [121.38361092833524, 28.37079317010684], [121.3847232809843, 28.36949224618619], [121.38519090312413, 28.36888214817863], [121.3855025595102, 28.368222199018863], [121.38567257852321, 28.367618035652065], [121.38623163543315, 28.365302493219904], [121.38632541404189, 28.36389322131669], [121.38671739066024, 28.35889767951778], [121.38695924214038, 28.35797592070024], [121.38732150195229, 28.357075860857144], [121.3889742428298, 28.35460401819111], [121.39431392313297, 28.349248829594796], [121.4028203286685, 28.341810171130938], [121.40523583594606, 28.336950353379056], [121.40786344445247, 28.332203617339196], [121.40951376266767, 28.329774349863765]]}}, {"type": "Feature", "properties": {"name": "台州市域铁路S1线", "lineCode": "S1", "color": "#1E90FF", "osm_id": "1040820215", "fclass": "subway", "bridge": "F", "tunnel": "F", "layer": 0, "fid": 11}, "geometry": {"type": "LineString", "coordinates": [[121.41123659576216, 28.635191946244323], [121.41129076670535, 28.634994127323047], [121.41137291592136, 28.63461300252172], [121.4114014934075, 28.634420291474918], [121.41137986337, 28.633972151466907], [121.41131534930324, 28.63359015640404], [121.41123354433276, 28.633271999513124], [121.41111964897503, 28.632982164068274], [121.41092716315997, 28.63259148796571], [121.41071718150084, 28.632228928737646]]}}, {"type": "Feature", "properties": {"name": "台州市域铁路S1线", "lineCode": "S1", "color": "#1E90FF", "osm_id": "1070491970", "fclass": "subway", "bridge": "T", "tunnel": "F", "layer": 3, "fid": 12}, "geometry": {"type": "LineString", "coordinates": [[121.41507921541181, 28.31483843973241], [121.41487344535787, 28.310239606906126], [121.41493767736497, 28.3097294287304], [121.41513074007162, 28.3090680867579], [121.4154738375203, 28.308482293627673], [121.41593486114527, 28.307764233650637], [121.41621077940562, 28.307193459108564], [121.41634705955855, 28.306546334040085]]}}, {"type": "Feature", "properties": {"name": "台州市域铁路S1线", "lineCode": "S1", "color": "#1E90FF", "osm_id": "1125494140", "fclass": "subway", "bridge": "T", "tunnel": "F", "layer": 3, "fid": 13}, "geometry": {"type": "LineString", "coordinates": [[121.40951376266767, 28.329774349863765], [121.40995283952007, 28.329151709525526], [121.41359059506411, 28.32471852579102], [121.41477520535528, 28.323218345462127], [121.41496529751147, 28.32289543656154], [121.41510880864895, 28.322572543606782], [121.41523552064305, 28.322177047320032], [121.41532484895204, 28.32178156486186], [121.41535450730052, 28.32142380985229], [121.41507921541181, 28.31483843973241]]}}, {"type": "Feature", "properties": {"name": "台州市域铁路S1线", "lineCode": "S1", "color": "#1E90FF", "osm_id": "1125494141", "fclass": "subway", "bridge": "F", "tunnel": "T", "layer": -1, "fid": 14}, "geometry": {"type": "LineString", "coordinates": [[121.37587575564073, 28.66630914743395], [121.37446878446565, 28.65855583849931], [121.37327432251759, 28.652934622653213]]}}, {"type": "Feature", "properties": {"name": "台州市域铁路S1线", "lineCode": "S1", "color": "#1E90FF", "osm_id": "1351156676", "fclass": "subway", "bridge": "F", "tunnel": "F", "layer": 0, "fid": 15}, "geometry": {"type": "LineString", "coordinates": [[121.3345749226538, 28.526163233436698], [121.33477714792315, 28.525895611515434]]}}, {"type": "Feature", "properties": {"name": "台州市域铁路S1线", "lineCode": "S1", "color": "#1E90FF", "osm_id": "1351156677", "fclass": "subway", "bridge": "F", "tunnel": "F", "layer": 0, "fid": 16}, "geometry": {"type": "LineString", "coordinates": [[121.33309179716899, 28.528079876759133], [121.33352581186077, 28.527513976289224]]}}, {"type": "Feature", "properties": {"name": "台州市域铁路S1线", "lineCode": "S1", "color": "#1E90FF", "osm_id": "1351156678", "fclass": "subway", "bridge": "F", "tunnel": "F", "layer": 0, "fid": 17}, "geometry": {"type": "LineString", "coordinates": [[121.33050951590818, 28.534845816089877], [121.33041029762762, 28.533571201213967]]}}, {"type": "Feature", "properties": {"name": "台州市域铁路S1线", "lineCode": "S1", "color": "#1E90FF", "osm_id": "1351156679", "fclass": "subway", "bridge": "T", "tunnel": "F", "layer": 1, "fid": 18}, "geometry": {"type": "LineString", "coordinates": [[121.33074765125592, 28.536249451657827], [121.33050951590818, 28.534845816089877]]}}, {"type": "Feature", "properties": {"name": "台州市域铁路S1线", "lineCode": "S1", "color": "#1E90FF", "osm_id": "1374659098", "fclass": "subway", "bridge": "F", "tunnel": "F", "layer": 0, "fid": 19}, "geometry": {"type": "LineString", "coordinates": [[121.34033155569864, 28.596777204444084], [121.34003528271248, 28.595143435706053]]}}, {"type": "Feature", "properties": {"name": "台州市域铁路S1线", "lineCode": "S1", "color": "#1E90FF", "osm_id": "1466215756", "fclass": "subway", "bridge": "F", "tunnel": "F", "layer": 0, "fid": 20}, "geometry": {"type": "LineString", "coordinates": [[121.35444693299647, 28.398785379185657], [121.35459191722373, 28.39876032269209], [121.35536903338877, 28.398626221757993], [121.35593241896443, 28.398455340439057]]}}]}